NORAD_CAT_ID,OBJECT_NAME,OBJECT_TYPE,EPOCH,MEAN_MOTION,ECCENTRICITY,INCLINATION,RA_OF_ASC_NODE,ARG_OF_PERICENTER,MEAN_ANOMALY,BSTAR,MEAN_MOTION_DOT,MEAN_MOTION_DDOT,TLE_LINE0,TLE_LINE1,TLE_LINE2,SEMIMAJOR_AXIS,PERIOD,APOGEE,PERIGEE,DECAYED
54089.0,STARLINK-5143,PAYLOAD,2023-02-15 20:57:45,15.0883242,0.000126,53.2153,312.0583,87.6763,272.4374,0.0003301,4.968e-05,0.0,0 STARLINK-5143,1 54089U 22136AQ  23046.87344213  .00004968  00000-0  33010-3 0  9994,2 54089  53.2153 312.0583 0001260  87.6763 272.4374 15.08832420 18231,6917.904,95.438,540.64,538.897,0.0
54089.0,STARLINK-5143,PAYLOAD,2023-02-16 00:08:30,15.08860097,0.000152,53.2184,311.4632,108.3305,251.7853,0.00012319,1.674e-05,0.0,0 STARLINK-5143,1 54089U 22136AQ  23047.00590880  .00001674  00000-0  12319-3 0  9993,2 54089  53.2184 311.4632 0001520 108.3305 251.7853 15.08860097 18722,6917.819,95.436,540.735,538.632,0.0
54089.0,STARLINK-5143,PAYLOAD,2023-02-16 22:23:56,15.08836843,0.0001958,53.2151,307.2994,82.3838,277.7377,-2.7325e-05,-7.23e-06,0.0,0 STARLINK-5143,1 54089U 22136AQ  23047.93329080 -.00000723  00000-0 -27325-4 0  9997,2 54089  53.2151 307.2994 0001958  82.3838 277.7377 15.08836843 18391,6917.89,95.438,541.11,538.401,0.0
54089.0,STARLINK-5143,PAYLOAD,2023-02-17 03:10:06,15.08830692,0.0001857,53.2181,306.4037,109.2714,250.8479,-1.913e-05,-5.92e-06,0.0,0 STARLINK-5143,1 54089U 22136AQ  23048.13201398 -.00000592  00000-0 -19130-4 0  9990,2 54089  53.2181 306.4037 0001857 109.2714 250.8479 15.08830692 18428,6917.909,95.438,541.058,538.489,0.0
54089.0,STARLINK-5143,PAYLOAD,2023-02-17 15:53:11,15.08832562,0.0002535,53.2156,304.0292,72.1015,288.0253,-8.7139e-05,-1.675e-05,0.0,0 STARLINK-5143,1 54089U 22136AQ  23048.66194052 -.00001675  00000-0 -87139-4 0  9993,2 54089  53.2156 304.0292 0002535  72.1015 288.0253 15.08832562 18974,6917.903,95.438,541.522,538.014,0.0
54089.0,STARLINK-5143,PAYLOAD,2023-02-17 20:39:21,15.08828671,0.000172,53.2168,303.1376,74.4907,285.6275,-0.00014163,-2.541e-05,0.0,0 STARLINK-5143,1 54089U 22136AQ  23048.86066401 -.00002541  00000-0 -14163-3 0  9990,2 54089  53.2168 303.1376 0001720  74.4907 285.6275 15.08828671 18535,6917.915,95.438,540.97,538.59,0.0
54089.0,STARLINK-5143,PAYLOAD,2023-02-18 09:22:25,15.08845268,0.0001385,53.2171,300.7578,78.4996,281.6151,-0.00011624,-2.138e-05,0.0,0 STARLINK-5143,1 54089U 22136AQ  23049.39057250 -.00002138  00000-0 -11624-3 0  9992,2 54089  53.2171 300.7578 0001385  78.4996 281.6151 15.08845268 19086,6917.864,95.437,540.687,538.771,0.0
54089.0,STARLINK-5143,PAYLOAD,2023-02-19 09:13:12,15.08841158,0.0001267,53.2164,296.2965,71.4182,288.6947,0.00012366,1.681e-05,0.0,0 STARLINK-5143,1 54089U 22136AQ  23050.38417271  .00001681  00000-0  12366-3 0  9990,2 54089  53.2164 296.2965 0001267  71.4182 288.6947 15.08841158 18764,6917.877,95.437,540.618,538.865,0.0
54089.0,STARLINK-5143,PAYLOAD,2023-02-19 15:34:45,15.08834719,0.0001557,53.2158,295.1078,71.8766,288.2395,0.00019878,2.877e-05,0.0,0 STARLINK-5143,1 54089U 22136AQ  23050.64913719  .00002877  00000-0  19878-3 0  9990,2 54089  53.2158 295.1078 0001557  71.8766 288.2395 15.08834719 19279,6917.897,95.438,540.839,538.684,0.0
54089.0,STARLINK-5143,PAYLOAD,2023-02-20 09:03:59,15.08844423,0.0001275,53.2169,291.8367,72.5024,287.6107,0.000128,1.75e-05,0.0,0 STARLINK-5143,1 54089U 22136AQ  23051.37777502  .00001750  00000-0  12800-3 0  9996,2 54089  53.2169 291.8367 0001275  72.5024 287.6107 15.08844423 18914,6917.867,95.437,540.614,538.85,0.0
54089.0,STARLINK-5143,PAYLOAD,2023-02-20 23:22:27,15.08848964,0.0001372,53.2172,289.1609,77.1324,282.9821,7.4153e-06,-1.7e-06,0.0,0 STARLINK-5143,1 54089U 22136AQ  23051.97393229 -.00000170  00000-0  74153-5 0  9999,2 54089  53.2172 289.1609 0001372  77.1324 282.9821 15.08848964 19476,6917.853,95.437,540.667,538.769,0.0
54089.0,STARLINK-5143,PAYLOAD,2023-02-21 08:54:46,15.08849385,0.0001382,53.2171,287.3758,73.4721,286.6423,-4.7777e-05,-1.048e-05,0.0,0 STARLINK-5143,1 54089U 22136AQ  23052.37137087 -.00001048  00000-0 -47777-4 0  9999,2 54089  53.2171 287.3758 0001382  73.4721 286.6423 15.08849385 19063,6917.852,95.437,540.673,538.761,0.0
54089.0,STARLINK-5143,PAYLOAD,2023-02-21 21:37:51,15.08846889,0.0001223,53.2166,284.9968,77.2576,282.8553,0.00015115,2.119e-05,0.0,0 STARLINK-5143,1 54089U 22136AQ  23052.90128751  .00002119  00000-0  15115-3 0  9994,2 54089  53.2166 284.9968 0001223  77.2576 282.8553 15.08846889 19144,6917.859,95.437,540.57,538.878,0.0
54089.0,STARLINK-5143,PAYLOAD,2023-02-22 00:48:36,15.08855862,0.0001313,53.2165,284.4017,84.7168,275.3974,0.00013394,1.845e-05,0.0,0 STARLINK-5143,1 54089U 22136AQ  23053.03376132  .00001845  00000-0  13394-3 0  9999,2 54089  53.2165 284.4017 0001313  84.7168 275.3974 15.08855862 19632,6917.832,95.437,540.605,538.789,0.0
54089.0,STARLINK-5143,PAYLOAD,2023-02-22 13:31:43,15.08837575,0.0001749,53.2164,282.0238,77.4573,282.6615,9.429e-05,1.213e-05,0.0,0 STARLINK-5143,1 54089U 22136AQ  23053.56369414  .00001213  00000-0  94290-4 0  9996,2 54089  53.2164 282.0238 0001749  77.4573 282.6615 15.08837575 19243,6917.888,95.438,540.963,538.543,0.0
54089.0,STARLINK-5143,PAYLOAD,2023-02-22 21:28:39,15.08835696,0.0001272,53.2164,280.5368,80.2354,279.8782,8.3352e-06,-1.55e-06,0.0,0 STARLINK-5143,1 54089U 22136AQ  23053.89489752 -.00000155  00000-0  83352-5 0  9993,2 54089  53.2164 280.5368 0001272  80.2354 279.8782 15.08835696 19290,6917.894,95.438,540.639,538.879,0.0
54089.0,STARLINK-5143,PAYLOAD,2023-02-23 14:57:52,15.08844321,0.0001331,53.2159,277.2661,78.7416,281.3726,8.5849e-05,1.079e-05,0.0,0 STARLINK-5143,1 54089U 22136AQ  23054.62353006  .00001079  00000-0  85849-4 0  9994,2 54089  53.2159 277.2661 0001331  78.7416 281.3726 15.08844321 19875,6917.867,95.437,540.653,538.811,0.0
54089.0,STARLINK-5143,PAYLOAD,2023-02-23 21:19:24,15.08853488,0.0001333,53.2157,276.076,83.8018,276.3126,0.00017251,2.46e-05,0.0,0 STARLINK-5143,1 54089U 22136AQ  23054.88848278  .00002460  00000-0  17251-3 0  9998,2 54089  53.2157 276.0760 0001333  83.8018 276.3126 15.08853488 19442,6917.839,95.437,540.626,538.782,0.0
54089.0,STARLINK-5143,PAYLOAD,2023-02-23 22:54:48,15.08855747,0.0001352,53.215,275.7786,84.0758,276.0388,0.0002362,3.475e-05,0.0,0 STARLINK-5143,1 54089U 22136AQ  23054.95472497  .00003475  00000-0  23620-3 0  9996,2 54089  53.2150 275.7786 0001352  84.0758 276.0388 15.08855747 19924,6917.832,95.437,540.633,538.762,0.0
54089.0,STARLINK-5143,PAYLOAD,2023-02-24 14:48:40,15.08836536,0.0001264,53.2149,272.8048,93.7973,266.3164,0.00012641,1.724e-05,0.0,0 STARLINK-5143,1 54089U 22136AQ  23055.61713406  .00001724  00000-0  12641-3 0  9994,2 54089  53.2149 272.8048 0001264  93.7973 266.3164 15.08836536 20021,6917.891,95.438,540.63,538.882,0.0
54089.0,STARLINK-5143,PAYLOAD,2023-02-24 21:10:12,15.08837859,0.0001249,53.215,271.6151,93.7137,266.3998,5.1671e-05,5.35e-06,0.0,0 STARLINK-5143,1 54089U 22136AQ  23055.88209322  .00000535  00000-0  51671-4 0  9996,2 54089  53.2150 271.6151 0001249  93.7137 266.3998 15.08837859 19594,6917.887,95.438,540.616,538.888,0.0
54089.0,STARLINK-5143,PAYLOAD,2023-02-25 13:04:04,15.08835143,0.00013,53.2151,268.6412,95.7732,264.3409,-3.5668e-05,-8.55e-06,0.0,0 STARLINK-5143,1 54089U 22136AQ  23056.54449485 -.00000855  00000-0 -35668-4 0  9991,2 54089  53.2151 268.6412 0001300  95.7732 264.3409 15.08835143 19692,6917.895,95.438,540.66,538.861,0.0
54089.0,STARLINK-5143,PAYLOAD,2023-02-25 17:50:13,15.08838744,0.0001303,53.2152,267.7492,94.8101,265.3039,-4.1079e-05,-9.42e-06,0.0,0 STARLINK-5143,1 54089U 22136AQ  23056.74321475 -.00000942  00000-0 -41079-4 0  9991,2 54089  53.2152 267.7492 0001303  94.8101 265.3039 15.08838744 20191,6917.884,95.438,540.651,538.848,0.0
54089.0,STARLINK-5143,PAYLOAD,2023-02-25 21:00:59,15.08840847,0.0001294,53.2154,267.1544,93.0551,267.059,5.1313e-06,-2.06e-06,0.0,0 STARLINK-5143,1 54089U 22136AQ  23056.87569434 -.00000206  00000-0  51313-5 0  9999,2 54089  53.2154 267.1544 0001294  93.0551 267.0590 15.08840847 19741,6917.878,95.438,540.638,538.848,0.0
54089.0,STARLINK-5143,PAYLOAD,2023-02-26 14:30:14,15.0884515,0.0001274,53.2154,263.8834,97.3569,262.7568,0.0002685,3.988e-05,0.0,0 STARLINK-5143,1 54089U 22136AQ  23057.60433285  .00003988  00000-0  26850-3 0  9990,2 54089  53.2154 263.8834 0001274  97.3569 262.7568 15.08845150 19851,6917.865,95.437,540.611,538.848,0.0
54089.0,STARLINK-5143,PAYLOAD,2023-02-26 20:51:46,15.08854704,0.0001261,53.2154,262.6938,97.4209,262.6927,0.00042423,6.473e-05,0.0,0 STARLINK-5143,1 54089U 22136AQ  23057.86928906  .00006473  00000-0  42423-3 0  9993,2 54089  53.2154 262.6938 0001261  97.4209 262.6927 15.08854704 20362,6917.835,95.437,540.573,538.828,0.0
54089.0,STARLINK-5143,PAYLOAD,2023-02-26 22:27:09,15.08857706,0.0001252,53.2153,262.3963,96.9309,263.1825,0.00047881,7.344e-05,0.0,0 STARLINK-5143,1 54089U 22136AQ  23057.93552796  .00007344  00000-0  47881-3 0  9992,2 54089  53.2153 262.3963 0001252  96.9309 263.1825 15.08857706 19907,6917.826,95.436,540.557,538.825,0.0
54089.0,STARLINK-5143,PAYLOAD,2023-02-27 17:31:47,15.08854582,0.0001261,53.2154,258.8285,96.5491,263.5644,0.00030765,4.614e-05,0.0,0 STARLINK-5143,1 54089U 22136AQ  23058.73040661  .00004614  00000-0  30765-3 0  9994,2 54089  53.2154 258.8285 0001261  96.5491 263.5644 15.08854582 20491,6917.836,95.437,540.573,538.828,0.0
54089.0,STARLINK-5143,PAYLOAD,2023-02-27 20:42:33,15.0885065,0.0001264,53.2152,258.2335,96.1043,264.0093,0.00020859,3.034e-05,0.0,0 STARLINK-5143,1 54089U 22136AQ  23058.86288705  .00003034  00000-0  20859-3 0  9999,2 54089  53.2152 258.2335 0001264  96.1043 264.0093 15.08850650 20048,6917.848,95.437,540.587,538.838,0.0
54089.0,STARLINK-5143,PAYLOAD,2023-02-28 06:14:52,15.0883571,0.0001844,53.2153,256.4496,88.4988,271.6215,-9.3294e-05,-1.772e-05,0.0,0 STARLINK-5143,1 54089U 22136AQ  23059.26033439 -.00001772  00000-0 -93294-4 0  9999,2 54089  53.2153 256.4496 0001844  88.4988 271.6215 15.08835710 20571,6917.894,95.438,541.034,538.483,0.0
